[
  {
    "OBJECT_NAME": "STARLINK-30226",
    "OBJECT_ID": "2023-113C",
    "EPOCH": "2026-06-10T20:38:39.010000",
    "MEAN_MOTION": 15.27583648,
    "ECCENTRICITY": 0.000251,
    "INCLINATION": 42.9983,
    "RA_OF_ASC_NODE": 209.9728,
    "ARG_OF_PERICENTER": 256.1439,
    "MEAN_ANOMALY": 103.9133,
    "EPHEMERIS_TYPE": 0,
    "CLASSIFICATION_TYPE": "U",
    "NORAD_CAT_ID": 57497,
    "ELEMENT_SET_NO": 999,
    "REV_AT_EPOCH": 15782,
    "BSTAR": 0.00006178499999999999,
    "MEAN_MOTION_DOT": 0.00001438,
    "MEAN_MOTION_DDOT": 0
  }
]
