STARLINK-30226          
1 57497U 23113C   26161.86017373  .00001438  00000+0  61785-4 0  9999
2 57497  42.9983 209.9728 0002510 256.1439 103.9133 15.27583648157826
